[{"OBJECT_NAME":"STARLINK-30556","OBJECT_ID":"2023-156D","EPOCH":"2025-11-27T21:12:09.228096","MEAN_MOTION":15.30191077,"ECCENTRICITY":0.000109,"INCLINATION":53.1598,"RA_OF_ASC_NODE":201.2753,"ARG_OF_PERICENTER":96.1061,"MEAN_ANOMALY":264.0064,"EPHEMERIS_TYPE":0,"CLASSIFICATION_TYPE":"U","NORAD_CAT_ID":58031,"ELEMENT_SET_NO":999,"REV_AT_EPOCH":12057,"BSTAR":4.3096e-5,"MEAN_MOTION_DOT":9.17e-6,"MEAN_MOTION_DDOT":0},{"OBJECT_NAME":"STARLINK-30561","OBJECT_ID":"2023-156E","EPOCH":"2025-11-27T20:55:35.528736","MEAN_MOTION":15.30193179,"ECCENTRICITY":0.00011509,"INCLINATION":53.1594,"RA_OF_ASC_NODE":191.3862,"ARG_OF_PERICENTER":90.0203,"MEAN_ANOMALY":270.093,"EPHEMERIS_TYPE":0,"CLASSIFICATION_TYPE":"U","NORAD_CAT_ID":58032,"ELEMENT_SET_NO":999,"REV_AT_EPOCH":12072,"BSTAR":4.5158243e-5,"MEAN_MOTION_DOT":9.78e-6,"MEAN_MOTION_DDOT":0},{"OBJECT_NAME":"STARLINK-30562","OBJECT_ID":"2023-156F","EPOCH":"2025-11-28T02:30:20.346624","MEAN_MOTION":15.30198056,"ECCENTRICITY":0.0001102,"INCLINATION":53.1605,"RA_OF_ASC_NODE":279.751,"ARG_OF_PERICENTER":99.231,"MEAN_ANOMALY":260.8815,"EPHEMERIS_TYPE":0,"CLASSIFICATION_TYPE":"U","NORAD_CAT_ID":58033,"ELEMENT_SET_NO":999,"REV_AT_EPOCH":11948,"BSTAR":1.0712e-5,"MEAN_MOTION_DOT":-4.2e-7,"MEAN_MOTION_DDOT":0},{"OBJECT_NAME":"STARLINK-30565","OBJECT_ID":"2023-156G","EPOCH":"2025-11-27T20:58:38.207712","MEAN_MOTION":15.30189263,"ECCENTRICITY":0.00011938,"INCLINATION":53.1589,"RA_OF_ASC_NODE":191.405,"ARG_OF_PERICENTER":92.8517,"MEAN_ANOMALY":267.2621,"EPHEMERIS_TYPE":0,"CLASSIFICATION_TYPE":"U","NORAD_CAT_ID":58034,"ELEMENT_SET_NO":999,"REV_AT_EPOCH":12072,"BSTAR":2.7954945e-5,"MEAN_MOTION_DOT":4.69e-6,"MEAN_MOTION_DDOT":0},{"OBJECT_NAME":"STARLINK-30438","OBJECT_ID":"2023-156H","EPOCH":"2025-11-27T21:21:18.157536","MEAN_MOTION":15.3019348,"ECCENTRICITY":0.00014417,"INCLINATION":53.16,"RA_OF_ASC_NODE":190.961,"ARG_OF_PERICENTER":85.2736,"MEAN_ANOMALY":274.843,"EPHEMERIS_TYPE":0,"CLASSIFICATION_TYPE":"U","NORAD_CAT_ID":58035,"ELEMENT_SET_NO":999,"REV_AT_EPOCH":12068,"BSTAR":2.618215e-5,"MEAN_MOTION_DOT":4.16e-6,"MEAN_MOTION_DDOT":0},{"OBJECT_NAME":"STARLINK-30437","OBJECT_ID":"2023-156J","EPOCH":"2025-11-28T00:41:33.470304","MEAN_MOTION":15.30206548,"ECCENTRICITY":0.0001054,"INCLINATION":53.1592,"RA_OF_ASC_NODE":190.4032,"ARG_OF_PERICENTER":68.0243,"MEAN_ANOMALY":292.087,"EPHEMERIS_TYPE":0,"CLASSIFICATION_TYPE":"U","NORAD_CAT_ID":58036,"ELEMENT_SET_NO":999,"REV_AT_EPOCH":12070,"BSTAR":-1.678e-6,"MEAN_MOTION_DOT":-4.09e-6,"MEAN_MOTION_DDOT":0},{"OBJECT_NAME":"STARLINK-30533","OBJECT_ID":"2023-156K","EPOCH":"2025-11-28T01:38:50.236800","MEAN_MOTION":15.30215272,"ECCENTRICITY":0.0001662,"INCLINATION":53.1603,"RA_OF_ASC_NODE":280.224,"ARG_OF_PERICENTER":85.9838,"MEAN_ANOMALY":274.1353,"EPHEMERIS_TYPE":0,"CLASSIFICATION_TYPE":"U","NORAD_CAT_ID":58037,"ELEMENT_SET_NO":999,"REV_AT_EPOCH":11947,"BSTAR":0.0011097,"MEAN_MOTION_DOT":0.00032668,"MEAN_MOTION_DDOT":0},{"OBJECT_NAME":"STARLINK-30560","OBJECT_ID":"2023-156L","EPOCH":"2025-11-27T20:22:47.686656","MEAN_MOTION":15.3019478,"ECCENTRICITY":0.0001113,"INCLINATION":53.1605,"RA_OF_ASC_NODE":188.5713,"ARG_OF_PERICENTER":108.9688,"MEAN_ANOMALY":251.1434,"EPHEMERIS_TYPE":0,"CLASSIFICATION_TYPE":"U","NORAD_CAT_ID":58038,"ELEMENT_SET_NO":999,"REV_AT_EPOCH":12071,"BSTAR":6.4057e-5,"MEAN_MOTION_DOT":1.538e-5,"MEAN_MOTION_DDOT":0},{"OBJECT_NAME":"STARLINK-30559","OBJECT_ID":"2023-156M","EPOCH":"2025-11-28T03:30:37.002240","MEAN_MOTION":15.30293278,"ECCENTRICITY":0.0011269,"INCLINATION":53.1649,"RA_OF_ASC_NODE":289.1714,"ARG_OF_PERICENTER":90.5647,"MEAN_ANOMALY":269.6645,"EPHEMERIS_TYPE":0,"CLASSIFICATION_TYPE":"U","NORAD_CAT_ID":58039,"ELEMENT_SET_NO":999,"REV_AT_EPOCH":11935,"BSTAR":0.0036604,"MEAN_MOTION_DOT":0.00110164,"MEAN_MOTION_DDOT":0},{"OBJECT_NAME":"STARLINK-30555","OBJECT_ID":"2023-156N","EPOCH":"2025-11-28T03:02:17.812320","MEAN_MOTION":15.30154859,"ECCENTRICITY":0.0001023,"INCLINATION":53.1608,"RA_OF_ASC_NODE":279.8917,"ARG_OF_PERICENTER":105.977,"MEAN_ANOMALY":254.1343,"EPHEMERIS_TYPE":0,"CLASSIFICATION_TYPE":"U","NORAD_CAT_ID":58040,"ELEMENT_SET_NO":999,"REV_AT_EPOCH":11948,"BSTAR":-0.00017353,"MEAN_MOTION_DOT":-5.487e-5,"MEAN_MOTION_DDOT":0},{"OBJECT_NAME":"STARLINK-30542","OBJECT_ID":"2023-156P","EPOCH":"2025-11-27T21:15:17.283744","MEAN_MOTION":15.30184394,"ECCENTRICITY":0.00013724,"INCLINATION":53.16,"RA_OF_ASC_NODE":191.1019,"ARG_OF_PERICENTER":93.9507,"MEAN_ANOMALY":266.165,"EPHEMERIS_TYPE":0,"CLASSIFICATION_TYPE":"U","NORAD_CAT_ID":58041,"ELEMENT_SET_NO":999,"REV_AT_EPOCH":12072,"BSTAR":2.7138022e-5,"MEAN_MOTION_DOT":4.44e-6,"MEAN_MOTION_DDOT":0},{"OBJECT_NAME":"STARLINK-30563","OBJECT_ID":"2023-156Q","EPOCH":"2025-11-27T21:12:54.463680","MEAN_MOTION":15.30190858,"ECCENTRICITY":0.00014547,"INCLINATION":53.1602,"RA_OF_ASC_NODE":188.638,"ARG_OF_PERICENTER":82.5002,"MEAN_ANOMALY":277.6164,"EPHEMERIS_TYPE":0,"CLASSIFICATION_TYPE":"U","NORAD_CAT_ID":58042,"ELEMENT_SET_NO":999,"REV_AT_EPOCH":12076,"BSTAR":9.731514e-5,"MEAN_MOTION_DOT":2.523e-5,"MEAN_MOTION_DDOT":0},{"OBJECT_NAME":"STARLINK-30564","OBJECT_ID":"2023-156R","EPOCH":"2025-11-27T21:00:09.233568","MEAN_MOTION":15.30191656,"ECCENTRICITY":9.076e-5,"INCLINATION":53.1593,"RA_OF_ASC_NODE":191.4096,"ARG_OF_PERICENTER":42.1724,"MEAN_ANOMALY":317.9347,"EPHEMERIS_TYPE":0,"CLASSIFICATION_TYPE":"U","NORAD_CAT_ID":58043,"ELEMENT_SET_NO":999,"REV_AT_EPOCH":12072,"BSTAR":0.00076426659,"MEAN_MOTION_DOT":0.00022338,"MEAN_MOTION_DDOT":0},{"OBJECT_NAME":"STARLINK-30547","OBJECT_ID":"2023-156S","EPOCH":"2025-11-28T01:43:23.277216","MEAN_MOTION":15.30197736,"ECCENTRICITY":0.0001502,"INCLINATION":53.1624,"RA_OF_ASC_NODE":280.2175,"ARG_OF_PERICENTER":67.257,"MEAN_ANOMALY":292.8589,"EPHEMERIS_TYPE":0,"CLASSIFICATION_TYPE":"U","NORAD_CAT_ID":58044,"ELEMENT_SET_NO":999,"REV_AT_EPOCH":11947,"BSTAR":2.5207e-6,"MEAN_MOTION_DOT":-2.85e-6,"MEAN_MOTION_DDOT":0},{"OBJECT_NAME":"STARLINK-30550","OBJECT_ID":"2023-156T","EPOCH":"2025-11-27T18:50:52.391904","MEAN_MOTION":15.30197308,"ECCENTRICITY":0.0001182,"INCLINATION":53.1613,"RA_OF_ASC_NODE":114.6884,"ARG_OF_PERICENTER":57.4155,"MEAN_ANOMALY":302.696,"EPHEMERIS_TYPE":0,"CLASSIFICATION_TYPE":"U","NORAD_CAT_ID":58045,"ELEMENT_SET_NO":999,"REV_AT_EPOCH":12177,"BSTAR":2.189735e-5,"MEAN_MOTION_DOT":2.89e-6,"MEAN_MOTION_DDOT":0},{"OBJECT_NAME":"STARLINK-30548","OBJECT_ID":"2023-156U","EPOCH":"2025-11-28T03:09:50.855904","MEAN_MOTION":15.30198799,"ECCENTRICITY":0.0001601,"INCLINATION":53.1618,"RA_OF_ASC_NODE":279.9261,"ARG_OF_PERICENTER":99.0515,"MEAN_ANOMALY":261.0667,"EPHEMERIS_TYPE":0,"CLASSIFICATION_TYPE":"U","NORAD_CAT_ID":58046,"ELEMENT_SET_NO":999,"REV_AT_EPOCH":11943,"BSTAR":3.0765e-5,"MEAN_MOTION_DOT":5.52e-6,"MEAN_MOTION_DDOT":0},{"OBJECT_NAME":"STARLINK-30529","OBJECT_ID":"2023-156V","EPOCH":"2025-11-28T02:15:18.444672","MEAN_MOTION":15.30192395,"ECCENTRICITY":0.0001353,"INCLINATION":53.1626,"RA_OF_ASC_NODE":280.3864,"ARG_OF_PERICENTER":83.2215,"MEAN_ANOMALY":276.894,"EPHEMERIS_TYPE":0,"CLASSIFICATION_TYPE":"U","NORAD_CAT_ID":58047,"ELEMENT_SET_NO":999,"REV_AT_EPOCH":11942,"BSTAR":5.2284e-5,"MEAN_MOTION_DOT":1.189e-5,"MEAN_MOTION_DDOT":0},{"OBJECT_NAME":"STARLINK-30554","OBJECT_ID":"2023-156W","EPOCH":"2025-11-28T04:22:37.601760","MEAN_MOTION":15.30194779,"ECCENTRICITY":0.0001609,"INCLINATION":53.1608,"RA_OF_ASC_NODE":279.5327,"ARG_OF_PERICENTER":76.5451,"MEAN_ANOMALY":283.5729,"EPHEMERIS_TYPE":0,"CLASSIFICATION_TYPE":"U","NORAD_CAT_ID":58048,"ELEMENT_SET_NO":999,"REV_AT_EPOCH":11944,"BSTAR":-5.9218e-5,"MEAN_MOTION_DOT":-2.113e-5,"MEAN_MOTION_DDOT":0},{"OBJECT_NAME":"STARLINK-30568","OBJECT_ID":"2023-158A","EPOCH":"2025-11-28T01:59:02.611104","MEAN_MOTION":15.02533299,"ECCENTRICITY":0.0001034,"INCLINATION":43.0024,"RA_OF_ASC_NODE":222.7239,"ARG_OF_PERICENTER":265.7368,"MEAN_ANOMALY":94.3356,"EPHEMERIS_TYPE":0,"CLASSIFICATION_TYPE":"U","NORAD_CAT_ID":58051,"ELEMENT_SET_NO":999,"REV_AT_EPOCH":11824,"BSTAR":7.7283e-5,"MEAN_MOTION_DOT":8.4e-6,"MEAN_MOTION_DDOT":0},{"OBJECT_NAME":"STARLINK-30575","OBJECT_ID":"2023-158B","EPOCH":"2025-11-27T02:12:42.604128","MEAN_MOTION":15.02534041,"ECCENTRICITY":9.544e-5,"INCLINATION":43.002,"RA_OF_ASC_NODE":228.1945,"ARG_OF_PERICENTER":268.4569,"MEAN_ANOMALY":91.6164,"EPHEMERIS_TYPE":0,"CLASSIFICATION_TYPE":"U","NORAD_CAT_ID":58052,"ELEMENT_SET_NO":999,"REV_AT_EPOCH":11809,"BSTAR":6.7086307e-5,"MEAN_MOTION_DOT":7.03e-6,"MEAN_MOTION_DDOT":0},{"OBJECT_NAME":"STARLINK-30577","OBJECT_ID":"2023-158C","EPOCH":"2025-11-28T01:54:15.267168","MEAN_MOTION":15.02533463,"ECCENTRICITY":0.0001234,"INCLINATION":43.0022,"RA_OF_ASC_NODE":222.6834,"ARG_OF_PERICENTER":282.1693,"MEAN_ANOMALY":77.9011,"EPHEMERIS_TYPE":0,"CLASSIFICATION_TYPE":"U","NORAD_CAT_ID":58053,"ELEMENT_SET_NO":999,"REV_AT_EPOCH":11824,"BSTAR":-0.00017918,"MEAN_MOTION_DOT":-2.623e-5,"MEAN_MOTION_DDOT":0},{"OBJECT_NAME":"STARLINK-30566","OBJECT_ID":"2023-158D","EPOCH":"2025-11-28T01:44:39.852672","MEAN_MOTION":15.02464175,"ECCENTRICITY":3.14e-5,"INCLINATION":43.0017,"RA_OF_ASC_NODE":222.6496,"ARG_OF_PERICENTER":272.4645,"MEAN_ANOMALY":87.6161,"EPHEMERIS_TYPE":0,"CLASSIFICATION_TYPE":"U","NORAD_CAT_ID":58054,"ELEMENT_SET_NO":999,"REV_AT_EPOCH":11824,"BSTAR":-0.0093456,"MEAN_MOTION_DOT":-0.00124001,"MEAN_MOTION_DDOT":0},{"OBJECT_NAME":"STARLINK-30544","OBJECT_ID":"2023-158E","EPOCH":"2025-11-28T02:56:24.855360","MEAN_MOTION":15.02545683,"ECCENTRICITY":0.0001234,"INCLINATION":43.0014,"RA_OF_ASC_NODE":222.1652,"ARG_OF_PERICENTER":269.714,"MEAN_ANOMALY":90.3561,"EPHEMERIS_TYPE":0,"CLASSIFICATION_TYPE":"U","NORAD_CAT_ID":58055,"ELEMENT_SET_NO":999,"REV_AT_EPOCH":11825,"BSTAR":-6.9239e-5,"MEAN_MOTION_DOT":-1.139e-5,"MEAN_MOTION_DDOT":0}]
